{"type": "FeatureCollection", "features": [ {"type": "Feature", "properties": {"norad_id": 66979, "name": "STARLINK-36107", "group": "last-30-days", "lat": -31.750869303492642, "lon": -25.622301673415937, "alt_km": 342.950511268602, "timestamp": "2025-12-21T14:40:46.636366+00:00", "meta": {"OBJECT_NAME": "STARLINK-36107", "OBJECT_ID": "2025-288W", "EPOCH": "2025-12-21T06:00:00.999648", "MEAN_MOTION": 15.77534331, "ECCENTRICITY": 0.00015032, "INCLINATION": 43.001, "RA_OF_ASC_NODE": 114.966, "ARG_OF_PERICENTER": 270.5535, "MEAN_ANOMALY": 64.4208, "EPHEMERIS_TYPE": 0, "CLASSIFICATION_TYPE": "U", "NORAD_CAT_ID": 66979, "ELEMENT_SET_NO": 999, "REV_AT_EPOCH": 319, "BSTAR": -0.010201377, "MEAN_MOTION_DOT": -0.01535436, "MEAN_MOTION_DDOT": 0}, "tle": {"line1": "1 66979U 25288W   25355.25001157 -.01535436  00000+0 -10201-1 0  9996", "line2": "2 66979  43.0010 114.9660 0001503 270.5535  64.4208 15.77534331  3196"}}, "geometry": {"type": "Point", "coordinates": [-25.622301673415937, -31.750869303492642]}}, {"type": "Feature", "properties": {"norad_id": 66980, "name": "STARLINK-36086", "group": "last-30-days", "lat": -32.757791440818785, "lon": -23.573154503197152, "alt_km": 342.9846911278155, "timestamp": "2025-12-21T14:40:46.636376+00:00", "meta": {"OBJECT_NAME": "STARLINK-36086", "OBJECT_ID": "2025-288X", "EPOCH": "2025-12-21T06:00:00.999648", "MEAN_MOTION": 15.77474324, "ECCENTRICITY": 0.00017052, "INCLINATION": 43.001, "RA_OF_ASC_NODE": 114.9609, "ARG_OF_PERICENTER": 265.4473, "MEAN_ANOMALY": 71.6193, "EPHEMERIS_TYPE": 0, "CLASSIFICATION_TYPE": "U", "NORAD_CAT_ID": 66980, "ELEMENT_SET_NO": 999, "REV_AT_EPOCH": 319, "BSTAR": -0.010285896, "MEAN_MOTION_DOT": -0.01543037, "MEAN_MOTION_DDOT": 0}, "tle": {"line1": "1 66980U 25288X   25355.25001157 -.01543037  00000+0 -10286-1 0  9997", "line2": "2 66980  43.0010 114.9609 0001705 265.4473  71.6193 15.77474324  3197"}}, "geometry": {"type": "Point", "coordinates": [-23.573154503197152, -32.757791440818785]}}, {"type": "Feature", "properties": {"norad_id": 66981, "name": "STARLINK-36142", "group": "last-30-days", "lat": -33.71580515740238, "lon": -21.51055668432634, "alt_km": 343.2343763458248, "timestamp": "2025-12-21T14:40:46.636385+00:00", "meta": {"OBJECT_NAME": "STARLINK-36142", "OBJECT_ID": "2025-288Y", "EPOCH": "2025-12-21T06:00:00.999648", "MEAN_MOTION": 15.77436055, "ECCENTRICITY": 0.00017184, "INCLINATION": 43.0012, "RA_OF_ASC_NODE": 114.9561, "ARG_OF_PERICENTER": 270.647, "MEAN_ANOMALY": 68.4596, "EPHEMERIS_TYPE": 0, "CLASSIFICATION_TYPE": "U", "NORAD_CAT_ID": 66981, "ELEMENT_SET_NO": 999, "REV_AT_EPOCH": 319, "BSTAR": -0.010427064, "MEAN_MOTION_DOT": -0.01559171, "MEAN_MOTION_DDOT": 0}, "tle": {"line1": "1 66981U 25288Y   25355.25001157 -.01559171  00000+0 -10427-1 0  9991", "line2": "2 66981  43.0012 114.9561 0001718 270.6470  68.4596 15.77436055  3196"}}, "geometry": {"type": "Point", "coordinates": [-21.51055668432634, -33.71580515740238]}}, {"type": "Feature", "properties": {"norad_id": 66982, "name": "STARLINK-36113", "group": "last-30-days", "lat": -34.644127816226145, "lon": -19.389289157549356, "alt_km": 343.2339045681583, "timestamp": "2025-12-21T14:40:46.636395+00:00", "meta": {"OBJECT_NAME": "STARLINK-36113", "OBJECT_ID": "2025-288Z", "EPOCH": "2025-12-21T06:00:00.999648", "MEAN_MOTION": 15.77385434, "ECCENTRICITY": 0.00017703, "INCLINATION": 43.001, "RA_OF_ASC_NODE": 114.9503, "ARG_OF_PERICENTER": 260.6079, "MEAN_ANOMALY": 80.5529, "EPHEMERIS_TYPE": 0, "CLASSIFICATION_TYPE": "U", "NORAD_CAT_ID": 66982, "ELEMENT_SET_NO": 999, "REV_AT_EPOCH": 319, "BSTAR": -0.010454767, "MEAN_MOTION_DOT": -0.01559706, "MEAN_MOTION_DDOT": 0}, "tle": {"line1": "1 66982U 25288Z   25355.25001157 -.01559706  00000+0 -10455-1 0  9997", "line2": "2 66982  43.0010 114.9503 0001770 260.6079  80.5529 15.77385434  3198"}}, "geometry": {"type": "Point", "coordinates": [-19.389289157549356, -34.644127816226145]}}, {"type": "Feature", "properties": {"norad_id": 66983, "name": "STARLINK-36145", "group": "last-30-days", "lat": -36.38605628432953, "lon": -15.002272672998021, "alt_km": 343.80965483192904, "timestamp": "2025-12-21T14:40:46.636409+00:00", "meta": {"OBJECT_NAME": "STARLINK-36145", "OBJECT_ID": "2025-288AA", "EPOCH": "2025-12-21T06:00:00.999648", "MEAN_MOTION": 15.77203499, "ECCENTRICITY": 0.0001416, "INCLINATION": 43.0009, "RA_OF_ASC_NODE": 114.94, "ARG_OF_PERICENTER": 270.0624, "MEAN_ANOMALY": 75.2464, "EPHEMERIS_TYPE": 0, "CLASSIFICATION_TYPE": "U", "NORAD_CAT_ID": 66983, "ELEMENT_SET_NO": 999, "REV_AT_EPOCH": 319, "BSTAR": -0.0095693905, "MEAN_MOTION_DOT": -0.0143237, "MEAN_MOTION_DDOT": 0}, "tle": {"line1": "1 66983U 25288AA  25355.25001157 -.01432370  00000+0 -95694-2 0  9994", "line2": "2 66983  43.0009 114.9400 0001416 270.0624  75.2464 15.77203499  3190"}}, "geometry": {"type": "Point", "coordinates": [-15.002272672998021, -36.38605628432953]}}, {"type": "Feature", "properties": {"norad_id": 66984, "name": "STARLINK-35591", "group": "last-30-days", "lat": -35.53628004086865, "lon": -17.2168450156772, "alt_km": 343.65030949926586, "timestamp": "2025-12-21T14:40:46.636419+00:00", "meta": {"OBJECT_NAME": "STARLINK-35591", "OBJECT_ID": "2025-288AB", "EPOCH": "2025-12-21T06:00:00.999648", "MEAN_MOTION": 15.77312643, "ECCENTRICITY": 0.00014167, "INCLINATION": 43.0009, "RA_OF_ASC_NODE": 114.9447, "ARG_OF_PERICENTER": 261.4375, "MEAN_ANOMALY": 81.8005, "EPHEMERIS_TYPE": 0, "CLASSIFICATION_TYPE": "U", "NORAD_CAT_ID": 66984, "ELEMENT_SET_NO": 999, "REV_AT_EPOCH": 319, "BSTAR": -0.01034561, "MEAN_MOTION_DOT": -0.01540772, "MEAN_MOTION_DDOT": 0}, "tle": {"line1": "1 66984U 25288AB  25355.25001157 -.01540772  00000+0 -10346-1 0  9991", "line2": "2 66984  43.0009 114.9447 0001416 261.4375  81.8005 15.77312643  3195"}}, "geometry": {"type": "Point", "coordinates": [-17.2168450156772, -35.53628004086865]}}, {"type": "Feature", "properties": {"norad_id": 66985, "name": "STARLINK-36103", "group": "last-30-days", "lat": -37.19311651995936, "lon": -12.741994870795628, "alt_km": 343.7644910601948, "timestamp": "2025-12-21T14:40:46.636431+00:00", "meta": {"OBJECT_NAME": "STARLINK-36103", "OBJECT_ID": "2025-288AC", "EPOCH": "2025-12-21T06:00:00.999648", "MEAN_MOTION": 15.77161774, "ECCENTRICITY": 0.0001883, "INCLINATION": 43.001, "RA_OF_ASC_NODE": 114.9357, "ARG_OF_PERICENTER": 263.3182, "MEAN_ANOMALY": 84.0742, "EPHEMERIS_TYPE": 0, "CLASSIFICATION_TYPE": "U", "NORAD_CAT_ID": 66985, "ELEMENT_SET_NO": 999, "REV_AT_EPOCH": 319, "BSTAR": -0.010135697, "MEAN_MOTION_DOT": -0.01504669, "MEAN_MOTION_DDOT": 0}, "tle": {"line1": "1 66985U 25288AC  25355.25001157 -.01504669  00000+0 -10136-1 0  9994", "line2": "2 66985  43.0010 114.9357 0001883 263.3182  84.0742 15.77161774  3193"}}, "geometry": {"type": "Point", "coordinates": [-12.741994870795628, -37.19311651995936]}}, {"type": "Feature", "properties": {"norad_id": 66986, "name": "STARLINK-36135", "group": "last-30-days", "lat": -37.956247012622406, "lon": -10.43531043305289, "alt_km": 344.2002627404527, "timestamp": "2025-12-21T14:40:46.636441+00:00", "meta": {"OBJECT_NAME": "STARLINK-36135", "OBJECT_ID": "2025-288AD", "EPOCH": "2025-12-21T06:00:00.999648", "MEAN_MOTION": 15.77106121, "ECCENTRICITY": 0.00016588, "INCLINATION": 43.0007, "RA_OF_ASC_NODE": 114.9288, "ARG_OF_PERICENTER": 265.3219, "MEAN_ANOMALY": 84.154, "EPHEMERIS_TYPE": 0, "CLASSIFICATION_TYPE": "U", "NORAD_CAT_ID": 66986, "ELEMENT_SET_NO": 999, "REV_AT_EPOCH": 319, "BSTAR": -0.010463711, "MEAN_MOTION_DOT": -0.01543684, "MEAN_MOTION_DDOT": 0}, "tle": {"line1": "1 66986U 25288AD  25355.25001157 -.01543684  00000+0 -10464-1 0  9999", "line2": "2 66986  43.0007 114.9288 0001658 265.3219  84.1540 15.77106121  3198"}}, "geometry": {"type": "Point", "coordinates": [-10.43531043305289, -37.956247012622406]}}, {"type": "Feature", "properties": {"norad_id": 66987, "name": "STARLINK-36147", "group": "last-30-days", "lat": -38.66455574451282, "lon": -8.111066199549885, "alt_km": 344.332103046022, "timestamp": "2025-12-21T14:40:46.636451+00:00", "meta": {"OBJECT_NAME": "STARLINK-36147", "OBJECT_ID": "2025-288AE", "EPOCH": "2025-12-21T06:00:00.999648", "MEAN_MOTION": 15.77053646, "ECCENTRICITY": 0.00017484, "INCLINATION": 43.0012, "RA_OF_ASC_NODE": 114.9246, "ARG_OF_PERICENTER": 266.5177, "MEAN_ANOMALY": 84.992, "EPHEMERIS_TYPE": 0, "CLASSIFICATION_TYPE": "U", "NORAD_CAT_ID": 66987, "ELEMENT_SET_NO": 999, "REV_AT_EPOCH": 319, "BSTAR": -0.010525677, "MEAN_MOTION_DOT": -0.01548531, "MEAN_MOTION_DDOT": 0}, "tle": {"line1": "1 66987U 25288AE  25355.25001157 -.01548531  00000+0 -10526-1 0  9995", "line2": "2 66987  43.0012 114.9246 0001748 266.5177  84.9920 15.77053646  3198"}}, "geometry": {"type": "Point", "coordinates": [-8.111066199549885, -38.66455574451282]}}, {"type": "Feature", "properties": {"norad_id": 66988, "name": "YAOGAN-47", "group": "last-30-days", "lat": 12.67771309668458, "lon": 59.05022167886192, "alt_km": 497.20951394396434, "timestamp": "2025-12-21T14:40:46.636461+00:00", "meta": {"OBJECT_NAME": "YAOGAN-47", "OBJECT_ID": "2025-289A", "EPOCH": "2025-12-20T02:21:43.539840", "MEAN_MOTION": 15.23243112, "ECCENTRICITY": 6.467e-05, "INCLINATION": 97.5265, "RA_OF_ASC_NODE": 59.2376, "ARG_OF_PERICENTER": 91.4531, "MEAN_ANOMALY": 268.678, "EPHEMERIS_TYPE": 0, "CLASSIFICATION_TYPE": "U", "NORAD_CAT_ID": 66988, "ELEMENT_SET_NO": 999, "REV_AT_EPOCH": 166, "BSTAR": 0.00010945697, "MEAN_MOTION_DOT": 2.52e-05, "MEAN_MOTION_DDOT": 0}, "tle": {"line1": "1 66988U 25289A   25354.09842060  .00002520  00000+0  10946-3 0  9992", "line2": "2 66988  97.5265  59.2376 0000646  91.4531 268.6780 15.23243112  1668"}}, "geometry": {"type": "Point", "coordinates": [59.05022167886192, 12.67771309668458]}}]}